{"type":"FeatureCollection","features":[{"type":"Feature","properties":{"DIST_EN":"Achham"},"geometry":{"type":"Polygon","coordinates":[[[81.468,29.272],[81.443,29.287],[81.417,29.277],[81.382,29.303],[81.354,29.284],[81.309,29.325],[81.268,29.302],[81.249,29.351],[81.177,29.385],[81.153,29.382],[81.136,29.305],[81.098,29.254],[81.114,29.228],[81.064,29.198],[81.027,29.195],[81.046,29.184],[81.065,29.135],[81.129,29.081],[81.121,29.065],[81.15,29.006],[81.102,28.97],[81.127,28.957],[81.204,28.908],[81.246,28.915],[81.266,28.903],[81.302,28.926],[81.355,28.89],[81.432,28.911],[81.465,28.894],[81.463,28.853],[81.522,28.803],[81.516,28.781],[81.535,28.761],[81.52,28.75],[81.579,28.756],[81.58,28.78],[81.509,28.89],[81.445,28.94],[81.41,28.997],[81.469,29.078],[81.566,29.126],[81.525,29.153],[81.499,29.152],[81.482,29.201],[81.5,29.239],[81.468,29.272]]]}},{"type":"Feature","properties":{"DIST_EN":"Arghakhanchi"},"geometry":{"type":"Polygon","coordinates":[[[83.051,28.112],[83.029,28.099],[83.002,28.114],[82.961,28.041],[82.974,28.006],[82.953,27.994],[83,27.978],[83.017,27.957],[83.014,27.923],[82.943,27.931],[82.916,27.904],[82.825,27.906],[82.809,27.868],[82.792,27.865],[82.807,27.857],[82.748,27.826],[82.786,27.795],[82.793,27.806],[82.8,27.794],[82.93,27.784],[82.997,27.793],[83.02,27.821],[83.023,27.798],[83.053,27.757],[83.094,27.783],[83.122,27.762],[83.226,27.763],[83.246,27.751],[83.258,27.785],[83.231,27.823],[83.288,27.827],[83.31,27.852],[83.301,27.86],[83.331,27.877],[83.298,27.91],[83.308,27.928],[83.279,27.933],[83.301,27.968],[83.253,27.987],[83.23,28.048],[83.193,28.083],[83.138,28.062],[83.125,28.085],[83.102,28.077],[83.099,28.094],[83.073,28.091],[83.07,28.108],[83.051,28.112]]]}},{"type":"Feature","properties":{"DIST_EN":"Baglung"},"geometry":{"type":"Polygon","coordinates":[[[83.107,28.632],[83.058,28.62],[82.977,28.629],[82.953,28.598],[82.986,28.571],[82.974,28.542],[82.916,28.565],[82.914,28.528],[82.877,28.515],[82.911,28.481],[82.879,28.473],[82.914,28.434],[82.916,28.403],[82.944,28.398],[82.955,28.36],[83.062,28.318],[83.097,28.277],[83.094,28.257],[83.131,28.25],[83.156,28.271],[83.168,28.258],[83.185,28.271],[83.274,28.188],[83.356,28.198],[83.423,28.125],[83.474,28.132],[83.478,28.118],[83.548,28.12],[83.59,28.081],[83.639,28.137],[83.64,28.175],[83.675,28.215],[83.668,28.231],[83.61,28.259],[83.602,28.299],[83.585,28.31],[83.535,28.303],[83.364,28.371],[83.312,28.355],[83.279,28.368],[83.297,28.416],[83.273,28.442],[83.297,28.47],[83.22,28.514],[83.169,28.493],[83.131,28.496],[83.126,28.528],[83.102,28.541],[83.107,28.632]]]}},{"type":"Feature","properties":{"DIST_EN":"Baitadi"},"geometry":{"type":"Polygon","coordinates":[[[80.796,29.688],[80.755,29.708],[80.685,29.704],[80.652,29.681],[80.574,29.688],[80.497,29.625],[80.418,29.614],[80.379,29.561],[80.343,29.553],[80.358,29.533],[80.35,29.519],[80.287,29.477],[80.303,29.453],[80.245,29.447],[80.242,29.412],[80.275,29.393],[80.28,29.346],[80.325,29.309],[80.354,29.334],[80.363,29.327],[80.368,29.35],[80.402,29.358],[80.415,29.356],[80.431,29.393],[80.532,29.392],[80.552,29.419],[80.582,29.396],[80.651,29.383],[80.679,29.401],[80.669,29.419],[80.682,29.425],[80.768,29.4],[80.762,29.386],[80.786,29.366],[80.851,29.377],[80.852,29.408],[80.908,29.442],[80.883,29.443],[80.817,29.516],[80.788,29.507],[80.746,29.542],[80.777,29.56],[80.791,29.641],[80.762,29.648],[80.763,29.662],[80.796,29.688]]]}},{"type":"Feature","properties":{"DIST_EN":"Bajhang"},"geometry":{"type":"Polygon","coordinates":[[[81.091,30.054],[81.038,30.015],[81.001,29.928],[81.041,29.882],[81.04,29.841],[81.07,29.828],[81.06,29.762],[81.032,29.742],[80.988,29.741],[80.975,29.722],[80.94,29.736],[80.84,29.687],[80.783,29.68],[80.762,29.648],[80.791,29.641],[80.777,29.56],[80.746,29.542],[80.788,29.507],[80.817,29.516],[80.883,29.443],[80.912,29.446],[80.94,29.398],[81.024,29.422],[81.156,29.396],[81.171,29.412],[81.202,29.396],[81.252,29.413],[81.262,29.434],[81.303,29.451],[81.291,29.475],[81.317,29.483],[81.372,29.55],[81.4,29.558],[81.428,29.644],[81.516,29.679],[81.524,29.711],[81.508,29.743],[81.551,29.752],[81.565,29.851],[81.528,29.886],[81.456,29.901],[81.453,29.951],[81.47,29.975],[81.455,30.002],[81.401,30.023],[81.382,30.007],[81.357,30.011],[81.272,30.045],[81.237,30.032],[81.253,30.024],[81.245,30.011],[81.218,30.007],[81.195,30.023],[81.149,30.012],[81.091,30.054]]]}},{"type":"Feature","properties":{"DIST_EN":"Bajura"},"geometry":{"type":"Polygon","coordinates":[[[81.774,29.606],[81.721,29.616],[81.699,29.642],[81.697,29.681],[81.74,29.792],[81.78,29.807],[81.799,29.902],[81.716,29.909],[81.687,29.949],[81.517,29.923],[81.506,29.894],[81.565,29.851],[81.547,29.795],[81.561,29.771],[81.54,29.747],[81.513,29.754],[81.516,29.679],[81.428,29.644],[81.4,29.558],[81.372,29.55],[81.317,29.483],[81.291,29.475],[81.303,29.455],[81.252,29.413],[81.17,29.387],[81.249,29.351],[81.268,29.302],[81.309,29.325],[81.354,29.284],[81.382,29.303],[81.417,29.277],[81.443,29.287],[81.468,29.272],[81.559,29.358],[81.567,29.348],[81.614,29.371],[81.643,29.356],[81.648,29.322],[81.74,29.334],[81.761,29.387],[81.795,29.399],[81.808,29.454],[81.788,29.5],[81.763,29.505],[81.781,29.509],[81.799,29.559],[81.791,29.596],[81.774,29.606]]]}},{"type":"Feature","properties":{"DIST_EN":"Banke"},"geometry":{"type":"Polygon","coordinates":[[[81.745,28.313],[81.674,28.338],[81.691,28.328],[81.641,28.28],[81.647,28.266],[81.528,28.195],[81.522,28.157],[81.499,28.145],[81.504,28.104],[81.525,28.083],[81.503,28.073],[81.624,28.002],[81.698,27.988],[81.886,27.857],[81.926,27.86],[81.938,27.888],[81.968,27.929],[82.067,27.922],[82.07,27.953],[82.192,27.953],[82.191,28.032],[82.021,28.099],[81.998,28.164],[81.922,28.227],[81.861,28.239],[81.844,28.272],[81.794,28.274],[81.787,28.295],[81.745,28.313]]]}},{"type":"Feature","properties":{"DIST_EN":"Bara"},"geometry":{"type":"Polygon","coordinates":[[[85.269,27.228],[85.243,27.249],[85.193,27.245],[85.156,27.262],[85.087,27.361],[84.97,27.356],[84.958,27.3],[84.973,27.264],[84.945,27.164],[84.955,27.127],[84.924,27.084],[84.936,27.071],[84.918,27.073],[84.9,27.046],[84.899,27.033],[84.917,27.034],[84.911,27.018],[84.866,26.984],[84.962,26.961],[84.978,26.94],[84.968,26.916],[85.001,26.907],[85.004,26.895],[85.06,26.887],[85.029,26.875],[85.022,26.855],[85.176,26.869],[85.163,26.889],[85.176,26.894],[85.179,26.929],[85.164,26.938],[85.176,26.947],[85.164,26.981],[85.198,27.028],[85.177,27.038],[85.201,27.039],[85.183,27.05],[85.201,27.066],[85.197,27.108],[85.231,27.134],[85.269,27.228]]]}},{"type":"Feature","properties":{"DIST_EN":"Bardiya"},"geometry":{"type":"Polygon","coordinates":[[[81.767,28.37],[81.659,28.416],[81.497,28.534],[81.446,28.554],[81.401,28.607],[81.316,28.637],[81.32,28.669],[81.285,28.673],[81.269,28.618],[81.16,28.502],[81.091,28.457],[81.059,28.408],[81.089,28.382],[81.214,28.358],[81.235,28.325],[81.233,28.289],[81.321,28.197],[81.325,28.175],[81.302,28.168],[81.328,28.148],[81.316,28.137],[81.371,28.143],[81.375,28.177],[81.426,28.171],[81.484,28.118],[81.479,28.083],[81.505,28.069],[81.525,28.084],[81.504,28.104],[81.499,28.145],[81.522,28.157],[81.528,28.195],[81.647,28.266],[81.641,28.28],[81.691,28.328],[81.674,28.338],[81.745,28.313],[81.767,28.37]]]}},{"type":"Feature","properties":{"DIST_EN":"Bhaktapur"},"geometry":{"type":"Polygon","coordinates":[[[85.525,27.726],[85.422,27.724],[85.357,27.683],[85.361,27.669],[85.418,27.62],[85.454,27.637],[85.463,27.626],[85.493,27.652],[85.503,27.69],[85.521,27.694],[85.525,27.726]]]}},{"type":"Feature","properties":{"DIST_EN":"Bhojpur"},"geometry":{"type":"Polygon","coordinates":[[[87.263,27.177],[87.202,27.247],[87.201,27.302],[87.182,27.316],[87.192,27.352],[87.125,27.402],[87.138,27.453],[87.073,27.46],[87.057,27.441],[87.01,27.436],[86.94,27.459],[86.906,27.434],[86.91,27.408],[86.934,27.354],[86.985,27.308],[86.948,27.266],[86.912,27.267],[86.895,27.25],[86.928,27.223],[86.917,27.129],[86.895,27.115],[86.965,27.058],[86.945,27.02],[86.967,27.008],[86.957,26.985],[86.973,26.957],[86.95,26.908],[87.002,26.886],[87.136,26.927],[87.156,26.916],[87.16,26.967],[87.199,27.008],[87.183,27.075],[87.271,27.143],[87.263,27.177]]]}},{"type":"Feature","properties":{"DIST_EN":"Chitawan"},"geometry":{"type":"Polygon","coordinates":[[[84.666,27.825],[84.627,27.878],[84.59,27.88],[84.559,27.858],[84.555,27.836],[84.522,27.832],[84.517,27.816],[84.433,27.814],[84.431,27.787],[84.472,27.754],[84.451,27.759],[84.422,27.741],[84.428,27.704],[84.378,27.681],[84.344,27.702],[84.258,27.651],[84.207,27.639],[84.115,27.553],[84.051,27.557],[84.031,27.537],[83.97,27.551],[83.92,27.541],[83.926,27.515],[83.953,27.528],[83.97,27.515],[83.939,27.492],[83.945,27.466],[83.931,27.45],[83.946,27.441],[84.052,27.443],[84.109,27.522],[84.151,27.517],[84.149,27.486],[84.206,27.47],[84.207,27.447],[84.254,27.452],[84.292,27.385],[84.47,27.355],[84.504,27.381],[84.54,27.386],[84.535,27.402],[84.547,27.405],[84.533,27.414],[84.548,27.418],[84.562,27.463],[84.665,27.43],[84.697,27.475],[84.68,27.552],[84.71,27.562],[84.738,27.604],[84.717,27.638],[84.732,27.656],[84.768,27.657],[84.797,27.709],[84.758,27.736],[84.693,27.721],[84.675,27.731],[84.675,27.779],[84.638,27.783],[84.646,27.8],[84.618,27.809],[84.666,27.825]]]}},{"type":"Feature","properties":{"DIST_EN":"Dadeldhura"},"geometry":{"type":"Polygon","coordinates":[[[80.786,29.366],[80.762,29.386],[80.768,29.4],[80.682,29.425],[80.669,29.419],[80.679,29.401],[80.651,29.383],[80.582,29.396],[80.552,29.419],[80.532,29.392],[80.431,29.393],[80.415,29.356],[80.368,29.35],[80.363,29.327],[80.317,29.313],[80.294,29.198],[80.247,29.22],[80.242,29.2],[80.273,29.143],[80.233,29.119],[80.185,29.137],[80.186,29.087],[80.223,29.056],[80.349,29.054],[80.42,29.027],[80.46,29.038],[80.478,29.018],[80.476,28.994],[80.519,28.999],[80.562,29.073],[80.527,29.106],[80.567,29.119],[80.567,29.145],[80.591,29.148],[80.617,29.18],[80.704,29.192],[80.707,29.231],[80.757,29.268],[80.734,29.299],[80.773,29.302],[80.762,29.363],[80.786,29.366]]]}},{"type":"Feature","properties":{"DIST_EN":"Dailekh"},"geometry":{"type":"Polygon","coordinates":[[[81.92,28.978],[81.848,28.972],[81.795,29.014],[81.716,29.02],[81.691,29.05],[81.613,29.034],[81.567,29.052],[81.579,29.136],[81.469,29.078],[81.419,29.023],[81.41,28.997],[81.445,28.94],[81.509,28.89],[81.58,28.78],[81.579,28.756],[81.547,28.749],[81.563,28.723],[81.639,28.677],[81.691,28.674],[81.776,28.633],[81.811,28.68],[81.824,28.733],[81.88,28.747],[81.912,28.78],[81.878,28.849],[81.894,28.901],[81.925,28.925],[81.92,28.978]]]}},{"type":"Feature","properties":{"DIST_EN":"Dang"},"geometry":{"type":"Polygon","coordinates":[[[82.397,28.169],[82.393,28.189],[82.367,28.19],[82.338,28.224],[82.312,28.223],[82.3,28.246],[82.244,28.238],[82.17,28.252],[82.144,28.237],[82.101,28.259],[82.051,28.24],[82.008,28.151],[82.021,28.099],[82.173,28.047],[82.194,28.025],[82.192,27.953],[82.07,27.953],[82.067,27.922],[82.123,27.865],[82.208,27.843],[82.449,27.679],[82.541,27.686],[82.664,27.722],[82.705,27.717],[82.696,27.757],[82.723,27.759],[82.731,27.775],[82.804,27.777],[82.799,27.802],[82.786,27.795],[82.748,27.826],[82.81,27.871],[82.774,27.894],[82.776,27.926],[82.752,27.944],[82.763,27.977],[82.696,28.014],[82.719,28.047],[82.625,28.07],[82.562,28.134],[82.504,28.15],[82.485,28.131],[82.397,28.169]]]}},{"type":"Feature","properties":{"DIST_EN":"Darchula"},"geometry":{"type":"Polygon","coordinates":[[[81.091,30.054],[81.108,30.088],[81.081,30.101],[81.083,30.148],[81.044,30.181],[81.029,30.233],[80.989,30.247],[80.928,30.236],[80.863,30.17],[80.878,30.129],[80.806,30.09],[80.761,30.05],[80.747,30.006],[80.72,30],[80.674,29.957],[80.603,29.958],[80.574,29.924],[80.553,29.85],[80.501,29.818],[80.494,29.796],[80.435,29.806],[80.407,29.795],[80.398,29.76],[80.365,29.746],[80.375,29.713],[80.391,29.664],[80.417,29.651],[80.409,29.605],[80.45,29.625],[80.497,29.625],[80.574,29.688],[80.652,29.681],[80.685,29.704],[80.755,29.708],[80.84,29.687],[80.94,29.736],[80.975,29.722],[80.988,29.741],[81.032,29.742],[81.063,29.768],[81.07,29.828],[81.04,29.841],[81.041,29.882],[81.002,29.936],[81.038,30.015],[81.091,30.054]]]}},{"type":"Feature","properties":{"DIST_EN":"Dhading"},"geometry":{"type":"Polygon","coordinates":[[[85.16,28.332],[85.081,28.346],[85.047,28.326],[85.028,28.262],[84.962,28.212],[84.974,28.19],[84.957,28.127],[84.892,28.1],[84.869,28.121],[84.842,28.115],[84.81,28.038],[84.811,28.003],[84.746,27.96],[84.732,27.926],[84.782,27.814],[84.765,27.819],[84.731,27.796],[84.666,27.825],[84.618,27.809],[84.646,27.8],[84.638,27.783],[84.675,27.779],[84.675,27.731],[84.693,27.721],[84.758,27.736],[84.797,27.709],[84.786,27.692],[84.8,27.671],[84.829,27.693],[84.88,27.669],[84.907,27.699],[84.952,27.684],[84.99,27.708],[85.042,27.702],[85.043,27.69],[85.095,27.711],[85.134,27.675],[85.162,27.671],[85.189,27.681],[85.197,27.716],[85.222,27.728],[85.214,27.737],[85.269,27.748],[85.253,27.776],[85.125,27.761],[85.053,27.797],[85.042,27.817],[85.012,27.81],[85.023,27.833],[84.989,27.859],[85.008,27.951],[85.032,27.99],[85.003,28],[84.989,28.029],[85.033,28.032],[85.062,28.067],[85.115,28.077],[85.124,28.106],[85.2,28.177],[85.204,28.204],[85.188,28.228],[85.203,28.25],[85.16,28.332]]]}},{"type":"Feature","properties":{"DIST_EN":"Dhankuta"},"geometry":{"type":"Polygon","coordinates":[[[87.407,27.136],[87.357,27.191],[87.265,27.183],[87.271,27.143],[87.183,27.075],[87.199,27.008],[87.148,26.938],[87.165,26.878],[87.216,26.863],[87.234,26.879],[87.256,26.866],[87.297,26.875],[87.343,26.849],[87.384,26.854],[87.421,26.871],[87.452,26.858],[87.502,26.874],[87.509,26.858],[87.58,26.861],[87.56,26.885],[87.522,26.885],[87.524,26.961],[87.493,26.985],[87.439,26.972],[87.43,27.038],[87.392,27.103],[87.407,27.136]]]}},{"type":"Feature","properties":{"DIST_EN":"Dhanusha"},"geometry":{"type":"Polygon","coordinates":[[[86.26,26.919],[86.188,26.983],[86.089,27.019],[85.992,27.025],[85.938,27.121],[85.906,27.134],[85.945,27.062],[85.914,27.038],[85.927,27.029],[85.912,27.008],[85.914,26.926],[85.895,26.878],[85.917,26.871],[85.92,26.846],[85.909,26.785],[85.879,26.746],[85.894,26.721],[85.887,26.698],[85.906,26.682],[85.898,26.666],[85.904,26.653],[85.852,26.615],[85.849,26.569],[85.929,26.617],[85.948,26.614],[85.96,26.651],[86.028,26.667],[86.139,26.629],[86.143,26.605],[86.151,26.638],[86.197,26.667],[86.2,26.687],[86.175,26.748],[86.148,26.771],[86.155,26.845],[86.134,26.917],[86.158,26.935],[86.221,26.889],[86.224,26.904],[86.26,26.919]]]}},{"type":"Feature","properties":{"DIST_EN":"Dolakha"},"geometry":{"type":"Polygon","coordinates":[[[86.516,27.957],[86.469,27.946],[86.443,27.906],[86.411,27.907],[86.381,27.938],[86.348,27.938],[86.335,27.965],[86.319,27.948],[86.289,27.978],[86.233,27.974],[86.204,28.084],[86.223,28.096],[86.22,28.112],[86.189,28.173],[86.176,28.17],[86.178,28.144],[86.132,28.117],[86.13,28.1],[86.083,28.091],[86.095,28.062],[86.079,28.02],[86.123,27.927],[86.067,27.911],[86.003,27.83],[86.023,27.801],[86.03,27.742],[85.961,27.742],[85.936,27.709],[85.939,27.669],[85.918,27.664],[85.915,27.647],[85.884,27.614],[85.952,27.589],[85.998,27.546],[85.988,27.508],[86.094,27.5],[86.116,27.474],[86.192,27.572],[86.289,27.603],[86.339,27.683],[86.421,27.716],[86.428,27.733],[86.41,27.761],[86.42,27.814],[86.45,27.833],[86.487,27.809],[86.541,27.809],[86.555,27.908],[86.516,27.957]]]}},{"type":"Feature","properties":{"DIST_EN":"Dolpa"},"geometry":{"type":"Polygon","coordinates":[[[83.657,29.176],[83.633,29.159],[83.61,29.181],[83.576,29.18],[83.572,29.203],[83.519,29.219],[83.515,29.256],[83.488,29.28],[83.463,29.277],[83.438,29.309],[83.445,29.34],[83.415,29.359],[83.426,29.403],[83.414,29.421],[83.372,29.429],[83.342,29.466],[83.345,29.495],[83.268,29.508],[83.255,29.557],[83.282,29.558],[83.278,29.569],[83.232,29.578],[83.215,29.589],[83.218,29.606],[83.197,29.611],[83.18,29.593],[83.159,29.596],[83.165,29.616],[83.15,29.624],[83.12,29.629],[83.086,29.603],[83.009,29.673],[82.947,29.669],[82.936,29.706],[82.827,29.69],[82.827,29.649],[82.794,29.632],[82.819,29.56],[82.782,29.514],[82.732,29.508],[82.725,29.449],[82.676,29.404],[82.642,29.385],[82.624,29.398],[82.623,29.425],[82.559,29.412],[82.548,29.38],[82.571,29.346],[82.591,29.303],[82.557,29.287],[82.531,29.25],[82.579,29.18],[82.515,29.156],[82.446,29.158],[82.417,29.136],[82.397,29.005],[82.458,28.99],[82.485,29.015],[82.524,29.015],[82.667,28.963],[82.7,28.909],[82.696,28.865],[82.743,28.845],[82.766,28.809],[82.817,28.831],[82.947,28.829],[82.981,28.801],[83.079,28.786],[83.114,28.744],[83.21,28.732],[83.229,28.743],[83.277,28.722],[83.362,28.734],[83.389,28.763],[83.484,28.783],[83.48,28.838],[83.502,28.846],[83.5,28.877],[83.592,28.984],[83.615,28.988],[83.613,29.036],[83.632,29.065],[83.616,29.098],[83.68,29.124],[83.657,29.176]]]}},{"type":"Feature","properties":{"DIST_EN":"Doti"},"geometry":{"type":"Polygon","coordinates":[[[81.187,29.398],[81.171,29.412],[81.144,29.391],[81.024,29.422],[80.94,29.398],[80.912,29.446],[80.852,29.408],[80.851,29.377],[80.762,29.363],[80.773,29.302],[80.734,29.299],[80.757,29.268],[80.707,29.231],[80.704,29.192],[80.617,29.18],[80.591,29.148],[80.567,29.145],[80.567,29.119],[80.527,29.106],[80.566,29.062],[80.623,29.053],[80.657,29.022],[80.762,29.003],[80.761,28.989],[80.803,28.972],[80.821,28.931],[80.856,28.978],[80.883,28.966],[80.883,28.941],[80.912,28.931],[80.928,28.944],[80.981,28.939],[81.049,28.978],[81.1,28.964],[81.105,28.978],[81.132,28.981],[81.15,29.006],[81.121,29.065],[81.129,29.081],[81.065,29.135],[81.046,29.184],[81.027,29.195],[81.064,29.198],[81.114,29.228],[81.1,29.261],[81.136,29.305],[81.153,29.382],[81.187,29.398]]]}},{"type":"Feature","properties":{"DIST_EN":"Gorkha"},"geometry":{"type":"Polygon","coordinates":[[[85.108,28.347],[85.127,28.392],[85.1,28.457],[85.119,28.486],[85.153,28.491],[85.166,28.532],[85.187,28.534],[85.192,28.569],[85.174,28.598],[85.197,28.621],[85.188,28.642],[85.157,28.643],[85.115,28.687],[85.084,28.671],[85.059,28.683],[84.983,28.591],[84.949,28.58],[84.945,28.595],[84.901,28.593],[84.857,28.571],[84.695,28.637],[84.705,28.671],[84.668,28.684],[84.626,28.737],[84.572,28.735],[84.557,28.752],[84.502,28.744],[84.482,28.719],[84.52,28.695],[84.513,28.674],[84.543,28.627],[84.565,28.487],[84.599,28.452],[84.637,28.439],[84.695,28.361],[84.646,28.293],[84.633,28.189],[84.541,28.1],[84.478,28.089],[84.487,28.063],[84.466,28.051],[84.457,28.004],[84.421,27.978],[84.421,27.958],[84.502,27.916],[84.539,27.918],[84.547,27.863],[84.624,27.88],[84.685,27.811],[84.731,27.796],[84.765,27.819],[84.775,27.809],[84.776,27.835],[84.733,27.907],[84.746,27.96],[84.811,28.003],[84.81,28.038],[84.842,28.115],[84.869,28.121],[84.892,28.1],[84.957,28.127],[84.974,28.19],[84.965,28.217],[85.028,28.262],[85.047,28.326],[85.108,28.347]]]}},{"type":"Feature","properties":{"DIST_EN":"Gulmi"},"geometry":{"type":"Polygon","coordinates":[[[83.581,28.078],[83.548,28.12],[83.423,28.125],[83.356,28.198],[83.274,28.188],[83.185,28.271],[83.168,28.258],[83.156,28.271],[83.131,28.25],[83.094,28.257],[83.078,28.234],[83.022,28.235],[83.037,28.203],[83.03,28.175],[83.057,28.145],[83.051,28.112],[83.067,28.105],[83.073,28.091],[83.099,28.094],[83.102,28.077],[83.125,28.085],[83.138,28.062],[83.193,28.083],[83.23,28.048],[83.253,27.987],[83.301,27.968],[83.281,27.927],[83.325,27.921],[83.344,27.927],[83.345,27.95],[83.378,27.959],[83.41,27.931],[83.441,27.936],[83.483,27.982],[83.522,27.964],[83.578,27.974],[83.605,28.008],[83.559,28.044],[83.581,28.078]]]}},{"type":"Feature","properties":{"DIST_EN":"Humla"},"geometry":{"type":"Polygon","coordinates":[[[82.498,29.947],[82.396,30.024],[82.363,30.01],[82.334,30.047],[82.299,30.038],[82.247,30.075],[82.172,30.066],[82.166,30.081],[82.187,30.111],[82.171,30.122],[82.206,30.154],[82.182,30.161],[82.185,30.191],[82.139,30.199],[82.128,30.226],[82.098,30.239],[82.128,30.302],[82.105,30.35],[82.074,30.359],[82.056,30.333],[82.016,30.344],[81.987,30.321],[81.949,30.359],[81.915,30.35],[81.868,30.377],[81.751,30.389],[81.727,30.411],[81.62,30.447],[81.607,30.412],[81.561,30.428],[81.552,30.37],[81.49,30.381],[81.439,30.419],[81.406,30.419],[81.401,30.396],[81.429,30.383],[81.395,30.368],[81.406,30.353],[81.396,30.323],[81.423,30.305],[81.402,30.293],[81.4,30.282],[81.417,30.282],[81.392,30.251],[81.397,30.209],[81.332,30.153],[81.305,30.164],[81.258,30.151],[81.288,30.107],[81.29,30.074],[81.272,30.045],[81.357,30.011],[81.382,30.007],[81.401,30.023],[81.463,29.996],[81.456,29.901],[81.471,29.89],[81.506,29.894],[81.517,29.923],[81.645,29.948],[81.687,29.949],[81.716,29.909],[81.799,29.902],[81.78,29.807],[81.74,29.792],[81.697,29.681],[81.699,29.642],[81.751,29.605],[81.774,29.606],[81.79,29.627],[81.853,29.619],[81.89,29.668],[81.947,29.675],[82.045,29.751],[82.101,29.686],[82.114,29.653],[82.103,29.635],[82.156,29.658],[82.234,29.663],[82.232,29.701],[82.282,29.692],[82.34,29.716],[82.393,29.697],[82.413,29.718],[82.401,29.805],[82.438,29.816],[82.435,29.861],[82.463,29.865],[82.448,29.889],[82.498,29.947]]]}},{"type":"Feature","properties":{"DIST_EN":"Ilam"},"geometry":{"type":"Polygon","coordinates":[[[87.992,27.106],[87.896,27.093],[87.778,27.013],[87.74,27.02],[87.677,26.952],[87.706,26.929],[87.688,26.881],[87.6,26.862],[87.661,26.815],[87.656,26.798],[87.679,26.785],[87.663,26.761],[87.69,26.757],[87.708,26.695],[87.765,26.665],[87.791,26.666],[87.815,26.694],[87.866,26.672],[87.863,26.691],[87.934,26.689],[87.927,26.716],[87.95,26.729],[87.947,26.767],[87.965,26.79],[87.981,26.753],[87.997,26.754],[88.005,26.78],[88.008,26.767],[88.027,26.778],[88.046,26.745],[88.067,26.792],[88.077,26.783],[88.092,26.802],[88.112,26.746],[88.131,26.778],[88.145,26.77],[88.151,26.806],[88.185,26.783],[88.174,26.866],[88.136,26.899],[88.146,26.921],[88.121,26.951],[88.136,26.985],[88.088,27.008],[88.078,27.035],[88.038,27.037],[88.021,27.088],[87.992,27.106]]]}},{"type":"Feature","properties":{"DIST_EN":"Jajarkot"},"geometry":{"type":"Polygon","coordinates":[[[82.412,29.096],[82.278,29.128],[82.263,29.107],[82.201,29.089],[82.181,29.062],[82.168,29.069],[82.095,28.974],[82.049,28.981],[82.039,29.012],[82.007,29.031],[81.958,28.986],[81.92,28.978],[81.925,28.925],[81.894,28.901],[81.878,28.849],[81.912,28.78],[81.88,28.747],[81.836,28.741],[81.82,28.724],[81.845,28.711],[81.886,28.643],[82.044,28.637],[82.057,28.644],[82.083,28.618],[82.138,28.627],[82.167,28.611],[82.19,28.628],[82.197,28.683],[82.209,28.676],[82.247,28.712],[82.28,28.694],[82.294,28.785],[82.358,28.792],[82.4,28.842],[82.497,28.879],[82.513,28.95],[82.552,28.988],[82.58,28.991],[82.494,29.017],[82.458,28.99],[82.399,29.003],[82.412,29.096]]]}},{"type":"Feature","properties":{"DIST_EN":"Jhapa"},"geometry":{"type":"Polygon","coordinates":[[[88.185,26.783],[88.151,26.806],[88.145,26.77],[88.131,26.778],[88.112,26.746],[88.092,26.802],[88.077,26.783],[88.067,26.792],[88.046,26.745],[88.027,26.778],[88.008,26.767],[88.005,26.78],[87.997,26.754],[87.981,26.753],[87.965,26.79],[87.947,26.767],[87.95,26.729],[87.927,26.716],[87.934,26.689],[87.867,26.692],[87.866,26.672],[87.815,26.694],[87.783,26.665],[87.708,26.695],[87.687,26.75],[87.655,26.715],[87.642,26.654],[87.655,26.616],[87.636,26.581],[87.643,26.508],[87.668,26.453],[87.675,26.436],[87.754,26.408],[87.776,26.422],[87.787,26.468],[87.849,26.437],[87.888,26.487],[87.91,26.458],[87.899,26.449],[87.925,26.446],[87.927,26.418],[87.992,26.393],[87.995,26.366],[88.03,26.365],[88.034,26.392],[88.096,26.44],[88.106,26.49],[88.09,26.508],[88.112,26.545],[88.105,26.561],[88.13,26.574],[88.142,26.626],[88.161,26.637],[88.185,26.783]]]}},{"type":"Feature","properties":{"DIST_EN":"Jumla"},"geometry":{"type":"Polygon","coordinates":[[[82.559,29.412],[82.513,29.421],[82.496,29.494],[82.432,29.443],[82.411,29.451],[82.386,29.502],[82.364,29.49],[82.317,29.507],[82.301,29.494],[82.294,29.443],[82.24,29.439],[82.214,29.407],[82.144,29.429],[82.131,29.47],[82.102,29.459],[82.077,29.484],[82.041,29.483],[82.014,29.462],[81.979,29.473],[81.964,29.446],[81.929,29.433],[81.93,29.333],[81.907,29.322],[81.881,29.274],[81.846,29.259],[81.869,29.226],[81.909,29.206],[81.895,29.173],[81.904,29.157],[81.944,29.15],[81.948,29.129],[82.017,29.092],[82.012,29.03],[82.039,29.012],[82.049,28.981],[82.078,28.969],[82.124,28.996],[82.119,29.015],[82.168,29.069],[82.181,29.062],[82.201,29.089],[82.263,29.107],[82.278,29.128],[82.412,29.096],[82.417,29.136],[82.446,29.158],[82.515,29.156],[82.579,29.18],[82.531,29.25],[82.557,29.287],[82.591,29.303],[82.59,29.327],[82.548,29.38],[82.559,29.412]]]}},{"type":"Feature","properties":{"DIST_EN":"Kabhrepalanchok"},"geometry":{"type":"Polygon","coordinates":[[[85.881,27.615],[85.817,27.644],[85.813,27.669],[85.735,27.677],[85.706,27.642],[85.68,27.7],[85.654,27.721],[85.604,27.749],[85.538,27.755],[85.493,27.652],[85.463,27.626],[85.454,27.637],[85.421,27.62],[85.436,27.608],[85.425,27.594],[85.403,27.602],[85.387,27.563],[85.404,27.545],[85.437,27.542],[85.443,27.516],[85.442,27.476],[85.409,27.444],[85.42,27.403],[85.47,27.389],[85.473,27.37],[85.502,27.373],[85.514,27.351],[85.533,27.357],[85.559,27.339],[85.635,27.354],[85.651,27.334],[85.689,27.337],[85.706,27.351],[85.696,27.373],[85.714,27.406],[85.774,27.398],[85.786,27.438],[85.822,27.451],[85.798,27.5],[85.819,27.518],[85.827,27.576],[85.881,27.615]]]}},{"type":"Feature","properties":{"DIST_EN":"Kailali"},"geometry":{"type":"Polygon","coordinates":[[[80.981,28.939],[80.895,28.934],[80.883,28.966],[80.856,28.978],[80.817,28.932],[80.807,28.967],[80.761,28.989],[80.762,29.003],[80.657,29.022],[80.617,29.059],[80.597,29.048],[80.561,29.068],[80.536,29.014],[80.486,28.998],[80.468,28.939],[80.511,28.921],[80.497,28.855],[80.518,28.832],[80.511,28.815],[80.55,28.778],[80.536,28.768],[80.557,28.753],[80.538,28.739],[80.56,28.723],[80.539,28.716],[80.543,28.696],[80.591,28.68],[80.58,28.661],[80.598,28.656],[80.59,28.648],[80.668,28.642],[80.677,28.604],[80.696,28.603],[80.69,28.587],[80.715,28.568],[80.768,28.566],[80.789,28.524],[80.844,28.496],[80.866,28.49],[80.862,28.504],[80.896,28.506],[80.916,28.458],[80.943,28.469],[80.932,28.459],[80.952,28.448],[80.98,28.455],[80.965,28.438],[81.018,28.452],[81.013,28.438],[81.034,28.428],[81.021,28.41],[81.067,28.395],[81.059,28.408],[81.091,28.457],[81.16,28.502],[81.233,28.578],[81.287,28.664],[81.267,28.704],[81.273,28.727],[81.256,28.73],[81.248,28.78],[81.226,28.795],[81.242,28.811],[81.206,28.862],[81.203,28.817],[81.174,28.835],[81.153,28.83],[81.143,28.873],[81.102,28.845],[80.981,28.939]]]}},{"type":"Feature","properties":{"DIST_EN":"Kalikot"},"geometry":{"type":"Polygon","coordinates":[[[81.931,29.437],[81.867,29.461],[81.81,29.455],[81.795,29.399],[81.761,29.387],[81.74,29.334],[81.669,29.317],[81.646,29.324],[81.644,29.354],[81.626,29.369],[81.582,29.365],[81.468,29.272],[81.5,29.239],[81.482,29.201],[81.499,29.152],[81.525,29.153],[81.566,29.126],[81.581,29.136],[81.564,29.054],[81.613,29.034],[81.655,29.042],[81.691,29.05],[81.716,29.02],[81.783,29.018],[81.819,28.985],[81.865,28.971],[81.958,28.986],[82.012,29.03],[82.017,29.092],[81.948,29.129],[81.944,29.15],[81.904,29.157],[81.895,29.173],[81.909,29.206],[81.869,29.226],[81.846,29.259],[81.881,29.274],[81.907,29.322],[81.93,29.333],[81.931,29.437]]]}},{"type":"Feature","properties":{"DIST_EN":"Kanchanpur"},"geometry":{"type":"Polygon","coordinates":[[[80.486,28.998],[80.472,28.997],[80.478,29.018],[80.46,29.038],[80.42,29.027],[80.387,29.048],[80.301,29.059],[80.228,29.046],[80.186,29.087],[80.185,29.137],[80.145,29.103],[80.129,29.061],[80.125,29.013],[80.136,29.007],[80.118,28.982],[80.1,28.987],[80.059,28.917],[80.075,28.824],[80.118,28.829],[80.216,28.755],[80.252,28.757],[80.265,28.744],[80.256,28.729],[80.317,28.7],[80.326,28.666],[80.386,28.63],[80.433,28.637],[80.461,28.622],[80.468,28.583],[80.518,28.552],[80.531,28.572],[80.504,28.665],[80.554,28.691],[80.538,28.713],[80.56,28.723],[80.538,28.739],[80.557,28.753],[80.541,28.756],[80.55,28.778],[80.511,28.815],[80.518,28.832],[80.497,28.855],[80.511,28.921],[80.468,28.939],[80.486,28.998]]]}},{"type":"Feature","properties":{"DIST_EN":"Kapilbastu"},"geometry":{"type":"Polygon","coordinates":[[[83.212,27.759],[83.122,27.762],[83.093,27.783],[83.053,27.757],[83.02,27.821],[82.991,27.792],[82.816,27.796],[82.784,27.769],[82.731,27.775],[82.723,27.759],[82.696,27.757],[82.712,27.665],[82.731,27.653],[82.735,27.61],[82.756,27.588],[82.742,27.537],[82.75,27.523],[82.736,27.503],[82.93,27.501],[82.967,27.464],[83.034,27.449],[83.188,27.455],[83.222,27.419],[83.233,27.514],[83.204,27.56],[83.232,27.61],[83.212,27.759]]]}},{"type":"Feature","properties":{"DIST_EN":"Kaski"},"geometry":{"type":"Polygon","coordinates":[[[84.269,28.457],[84.279,28.471],[84.267,28.48],[84.189,28.489],[84.137,28.539],[84.085,28.539],[83.964,28.605],[83.872,28.613],[83.809,28.59],[83.801,28.577],[83.829,28.534],[83.752,28.472],[83.732,28.42],[83.759,28.394],[83.701,28.399],[83.726,28.349],[83.775,28.309],[83.766,28.274],[83.821,28.26],[83.798,28.229],[83.817,28.21],[83.871,28.198],[83.924,28.169],[83.93,28.144],[83.98,28.143],[84.026,28.096],[84.07,28.078],[84.103,28.11],[84.226,28.096],[84.219,28.181],[84.191,28.196],[84.21,28.212],[84.211,28.266],[84.187,28.292],[84.218,28.36],[84.214,28.392],[84.269,28.457]]]}},{"type":"Feature","properties":{"DIST_EN":"Kathmandu"},"geometry":{"type":"Polygon","coordinates":[[[85.55,27.757],[85.566,27.764],[85.534,27.792],[85.473,27.778],[85.449,27.818],[85.3,27.813],[85.252,27.774],[85.267,27.746],[85.214,27.737],[85.222,27.728],[85.197,27.716],[85.19,27.678],[85.233,27.65],[85.223,27.626],[85.238,27.608],[85.243,27.578],[85.267,27.571],[85.285,27.586],[85.295,27.627],[85.282,27.644],[85.303,27.692],[85.352,27.668],[85.422,27.724],[85.525,27.726],[85.55,27.757]]]}},{"type":"Feature","properties":{"DIST_EN":"Khotang"},"geometry":{"type":"Polygon","coordinates":[[[86.906,27.434],[86.822,27.44],[86.804,27.415],[86.752,27.395],[86.684,27.393],[86.686,27.31],[86.667,27.298],[86.668,27.269],[86.619,27.235],[86.557,27.227],[86.526,27.193],[86.447,27.164],[86.427,27.138],[86.473,27.102],[86.581,27.153],[86.669,27.12],[86.732,27.035],[86.754,27.006],[86.772,26.885],[86.823,26.872],[86.862,26.895],[86.952,26.905],[86.965,26.928],[86.967,27.008],[86.945,27.02],[86.965,27.058],[86.895,27.115],[86.917,27.129],[86.913,27.17],[86.93,27.203],[86.928,27.223],[86.895,27.25],[86.912,27.267],[86.948,27.266],[86.985,27.308],[86.932,27.357],[86.906,27.434]]]}},{"type":"Feature","properties":{"DIST_EN":"Lalitpur"},"geometry":{"type":"Polygon","coordinates":[[[85.352,27.668],[85.303,27.692],[85.282,27.644],[85.295,27.604],[85.232,27.537],[85.251,27.528],[85.234,27.505],[85.268,27.453],[85.395,27.411],[85.419,27.408],[85.407,27.448],[85.442,27.476],[85.443,27.516],[85.437,27.542],[85.404,27.545],[85.387,27.563],[85.403,27.602],[85.417,27.607],[85.422,27.593],[85.436,27.608],[85.352,27.668]]]}},{"type":"Feature","properties":{"DIST_EN":"Lamjung"},"geometry":{"type":"Polygon","coordinates":[[[84.568,28.483],[84.491,28.462],[84.461,28.5],[84.433,28.51],[84.398,28.457],[84.291,28.445],[84.269,28.457],[84.214,28.392],[84.218,28.36],[84.187,28.292],[84.211,28.266],[84.214,28.237],[84.191,28.196],[84.219,28.181],[84.23,28.082],[84.359,28.129],[84.422,28.119],[84.482,28.056],[84.478,28.089],[84.541,28.1],[84.633,28.189],[84.646,28.293],[84.695,28.361],[84.637,28.439],[84.568,28.483]]]}},{"type":"Feature","properties":{"DIST_EN":"Mahottari"},"geometry":{"type":"Polygon","coordinates":[[[85.906,27.134],[85.883,27.146],[85.863,27.127],[85.825,27.168],[85.793,27.137],[85.798,27.095],[85.748,27.035],[85.71,26.904],[85.676,26.865],[85.68,26.843],[85.721,26.821],[85.734,26.796],[85.724,26.674],[85.748,26.639],[85.801,26.624],[85.818,26.603],[85.853,26.604],[85.863,26.628],[85.906,26.656],[85.879,26.746],[85.909,26.785],[85.92,26.846],[85.917,26.871],[85.895,26.878],[85.914,26.926],[85.912,27.008],[85.927,27.029],[85.914,27.038],[85.945,27.062],[85.906,27.134]]]}},{"type":"Feature","properties":{"DIST_EN":"Makawanpur"},"geometry":{"type":"Polygon","coordinates":[[[85.189,27.681],[85.143,27.671],[85.089,27.712],[85.043,27.69],[85.039,27.706],[85.011,27.708],[84.952,27.684],[84.907,27.699],[84.88,27.669],[84.829,27.693],[84.8,27.671],[84.792,27.687],[84.768,27.657],[84.723,27.647],[84.731,27.582],[84.68,27.552],[84.697,27.475],[84.665,27.43],[84.719,27.431],[84.726,27.445],[84.791,27.438],[84.81,27.416],[84.834,27.418],[84.926,27.364],[84.972,27.355],[84.996,27.366],[85.022,27.352],[85.087,27.361],[85.103,27.323],[85.182,27.247],[85.243,27.249],[85.262,27.227],[85.307,27.232],[85.394,27.21],[85.472,27.162],[85.494,27.17],[85.481,27.181],[85.488,27.198],[85.51,27.199],[85.504,27.222],[85.488,27.221],[85.481,27.268],[85.437,27.284],[85.418,27.321],[85.478,27.378],[85.432,27.41],[85.385,27.408],[85.258,27.459],[85.234,27.505],[85.251,27.528],[85.232,27.537],[85.263,27.571],[85.24,27.581],[85.236,27.62],[85.223,27.626],[85.233,27.65],[85.189,27.681]]]}},{"type":"Feature","properties":{"DIST_EN":"Manang"},"geometry":{"type":"Polygon","coordinates":[[[84.226,28.894],[84.184,28.9],[84.158,28.872],[84.131,28.889],[84.096,28.887],[84.085,28.85],[84.052,28.843],[84.015,28.798],[83.95,28.835],[83.939,28.789],[83.897,28.771],[83.872,28.727],[83.813,28.715],[83.789,28.693],[83.85,28.654],[83.872,28.613],[84.014,28.587],[84.085,28.539],[84.137,28.539],[84.189,28.489],[84.218,28.486],[84.267,28.48],[84.279,28.471],[84.269,28.457],[84.291,28.445],[84.398,28.457],[84.433,28.51],[84.461,28.5],[84.491,28.462],[84.551,28.472],[84.571,28.51],[84.548,28.555],[84.543,28.627],[84.519,28.652],[84.52,28.695],[84.482,28.719],[84.492,28.735],[84.48,28.747],[84.437,28.769],[84.435,28.821],[84.401,28.83],[84.409,28.854],[84.343,28.873],[84.324,28.863],[84.266,28.898],[84.226,28.894]]]}},{"type":"Feature","properties":{"DIST_EN":"Morang"},"geometry":{"type":"Polygon","coordinates":[[[87.58,26.861],[87.509,26.858],[87.502,26.874],[87.452,26.858],[87.421,26.871],[87.348,26.85],[87.349,26.821],[87.323,26.78],[87.339,26.737],[87.286,26.663],[87.301,26.616],[87.284,26.559],[87.247,26.524],[87.239,26.47],[87.266,26.374],[87.312,26.372],[87.341,26.348],[87.369,26.408],[87.466,26.44],[87.548,26.419],[87.587,26.382],[87.652,26.394],[87.65,26.406],[87.678,26.416],[87.649,26.484],[87.636,26.581],[87.655,26.616],[87.642,26.654],[87.655,26.715],[87.691,26.753],[87.663,26.761],[87.679,26.785],[87.656,26.798],[87.648,26.831],[87.58,26.861]]]}},{"type":"Feature","properties":{"DIST_EN":"Mugu"},"geometry":{"type":"Polygon","coordinates":[[[82.827,29.69],[82.818,29.721],[82.763,29.731],[82.745,29.77],[82.69,29.763],[82.694,29.791],[82.737,29.814],[82.727,29.835],[82.697,29.855],[82.621,29.837],[82.643,29.87],[82.602,29.889],[82.563,29.955],[82.53,29.971],[82.448,29.889],[82.463,29.865],[82.435,29.861],[82.438,29.816],[82.401,29.805],[82.413,29.718],[82.393,29.697],[82.34,29.716],[82.282,29.692],[82.232,29.701],[82.234,29.663],[82.156,29.658],[82.103,29.635],[82.114,29.653],[82.101,29.686],[82.045,29.751],[81.947,29.675],[81.89,29.668],[81.853,29.619],[81.825,29.62],[81.777,29.617],[81.799,29.559],[81.781,29.509],[81.763,29.505],[81.788,29.5],[81.808,29.454],[81.867,29.461],[81.931,29.437],[81.964,29.446],[81.979,29.473],[82.014,29.462],[82.041,29.483],[82.077,29.484],[82.102,29.459],[82.131,29.47],[82.161,29.417],[82.214,29.407],[82.24,29.439],[82.294,29.443],[82.301,29.494],[82.329,29.508],[82.364,29.49],[82.386,29.502],[82.411,29.451],[82.432,29.443],[82.496,29.494],[82.513,29.421],[82.559,29.412],[82.623,29.425],[82.624,29.398],[82.642,29.385],[82.715,29.432],[82.735,29.468],[82.724,29.479],[82.732,29.508],[82.782,29.514],[82.819,29.56],[82.794,29.632],[82.827,29.649],[82.827,29.69]]]}},{"type":"Feature","properties":{"DIST_EN":"Mustang"},"geometry":{"type":"Polygon","coordinates":[[[84.226,28.894],[84.248,29.037],[84.222,29.054],[84.19,29.047],[84.201,29.124],[84.175,29.131],[84.162,29.185],[84.2,29.214],[84.203,29.237],[84.116,29.244],[84.12,29.28],[84.044,29.301],[84.016,29.289],[83.99,29.299],[84.001,29.312],[83.976,29.329],[83.813,29.302],[83.795,29.278],[83.797,29.25],[83.711,29.245],[83.656,29.204],[83.68,29.124],[83.616,29.098],[83.632,29.065],[83.613,29.036],[83.615,28.988],[83.592,28.984],[83.506,28.885],[83.502,28.846],[83.482,28.845],[83.48,28.817],[83.487,28.791],[83.554,28.771],[83.559,28.746],[83.528,28.689],[83.562,28.644],[83.569,28.594],[83.638,28.567],[83.673,28.577],[83.745,28.69],[83.872,28.727],[83.897,28.771],[83.939,28.789],[83.95,28.835],[84.015,28.798],[84.052,28.843],[84.085,28.85],[84.096,28.887],[84.131,28.889],[84.158,28.872],[84.184,28.9],[84.226,28.894]]]}},{"type":"Feature","properties":{"DIST_EN":"Myagdi"},"geometry":{"type":"Polygon","coordinates":[[[83.789,28.693],[83.745,28.69],[83.655,28.565],[83.569,28.594],[83.562,28.644],[83.528,28.689],[83.556,28.765],[83.504,28.794],[83.389,28.763],[83.362,28.734],[83.277,28.722],[83.229,28.743],[83.21,28.732],[83.145,28.747],[83.153,28.701],[83.139,28.675],[83.12,28.675],[83.102,28.541],[83.126,28.528],[83.131,28.496],[83.169,28.493],[83.22,28.514],[83.274,28.494],[83.284,28.475],[83.301,28.461],[83.273,28.442],[83.297,28.416],[83.279,28.368],[83.312,28.355],[83.364,28.371],[83.378,28.355],[83.411,28.358],[83.444,28.329],[83.498,28.324],[83.535,28.303],[83.563,28.317],[83.602,28.299],[83.568,28.341],[83.57,28.375],[83.597,28.392],[83.659,28.348],[83.688,28.399],[83.759,28.394],[83.732,28.42],[83.752,28.472],[83.829,28.534],[83.802,28.58],[83.872,28.613],[83.85,28.654],[83.789,28.693]]]}},{"type":"Feature","properties":{"DIST_EN":"Nawalparasi East"},"geometry":{"type":"Polygon","coordinates":[[[84.422,27.741],[84.418,27.759],[84.38,27.779],[84.361,27.754],[84.326,27.748],[84.291,27.838],[84.21,27.839],[84.202,27.853],[84.156,27.84],[84.081,27.87],[84.053,27.849],[84.023,27.849],[84.027,27.821],[84,27.789],[83.994,27.751],[83.951,27.748],[83.924,27.727],[83.845,27.735],[83.846,27.71],[83.782,27.725],[83.729,27.709],[83.677,27.719],[83.705,27.683],[83.695,27.662],[83.725,27.673],[83.812,27.662],[83.79,27.606],[83.836,27.586],[83.836,27.545],[83.851,27.559],[83.882,27.528],[83.876,27.511],[83.898,27.499],[83.875,27.489],[83.896,27.438],[83.939,27.455],[83.939,27.492],[83.97,27.515],[83.953,27.528],[83.926,27.515],[83.924,27.544],[84.031,27.537],[84.051,27.557],[84.115,27.553],[84.207,27.639],[84.258,27.651],[84.344,27.702],[84.378,27.681],[84.428,27.704],[84.422,27.741]]]}},{"type":"Feature","properties":{"DIST_EN":"Nawalparasi West"},"geometry":{"type":"Polygon","coordinates":[[[83.695,27.662],[83.633,27.693],[83.63,27.665],[83.575,27.618],[83.581,27.575],[83.596,27.573],[83.593,27.502],[83.61,27.486],[83.615,27.47],[83.863,27.347],[83.904,27.377],[83.905,27.39],[83.873,27.393],[83.868,27.428],[83.896,27.438],[83.875,27.489],[83.898,27.499],[83.851,27.559],[83.836,27.545],[83.836,27.586],[83.79,27.606],[83.812,27.662],[83.725,27.673],[83.695,27.662]]]}},{"type":"Feature","properties":{"DIST_EN":"Nuwakot"},"geometry":{"type":"Polygon","coordinates":[[[85.442,28.083],[85.404,28.039],[85.276,27.965],[85.184,27.973],[85.187,28.019],[85.133,28.038],[85.171,28.083],[85.155,28.088],[85.123,28.091],[85.115,28.077],[85.062,28.067],[85.033,28.032],[84.989,28.029],[85.003,28],[85.032,27.99],[84.989,27.886],[84.989,27.859],[85.023,27.833],[85.012,27.812],[85.042,27.817],[85.053,27.797],[85.128,27.761],[85.247,27.773],[85.3,27.813],[85.447,27.815],[85.488,27.92],[85.479,27.959],[85.497,28.029],[85.442,28.083]]]}},{"type":"Feature","properties":{"DIST_EN":"Okhaldhunga"},"geometry":{"type":"Polygon","coordinates":[[[86.679,27.354],[86.657,27.34],[86.571,27.341],[86.564,27.366],[86.503,27.425],[86.473,27.421],[86.46,27.434],[86.467,27.446],[86.44,27.486],[86.402,27.517],[86.356,27.526],[86.264,27.456],[86.228,27.398],[86.216,27.334],[86.241,27.289],[86.219,27.271],[86.204,27.25],[86.23,27.237],[86.266,27.261],[86.341,27.229],[86.344,27.203],[86.379,27.193],[86.428,27.147],[86.526,27.193],[86.557,27.227],[86.619,27.235],[86.668,27.269],[86.667,27.298],[86.686,27.31],[86.679,27.354]]]}},{"type":"Feature","properties":{"DIST_EN":"Palpa"},"geometry":{"type":"Polygon","coordinates":[[[83.441,27.936],[83.41,27.931],[83.378,27.959],[83.345,27.95],[83.338,27.923],[83.309,27.926],[83.298,27.91],[83.328,27.871],[83.301,27.86],[83.31,27.852],[83.288,27.827],[83.231,27.823],[83.26,27.757],[83.329,27.767],[83.371,27.735],[83.389,27.749],[83.443,27.724],[83.531,27.726],[83.622,27.688],[83.653,27.691],[83.695,27.662],[83.705,27.683],[83.677,27.719],[83.729,27.709],[83.76,27.723],[83.846,27.71],[83.845,27.735],[83.924,27.727],[83.951,27.748],[83.994,27.751],[84.029,27.857],[83.94,27.878],[83.925,27.868],[83.878,27.888],[83.86,27.874],[83.845,27.882],[83.846,27.869],[83.807,27.873],[83.762,27.91],[83.743,27.9],[83.676,27.928],[83.634,27.899],[83.626,27.926],[83.575,27.93],[83.571,27.943],[83.549,27.928],[83.531,27.939],[83.524,27.924],[83.509,27.941],[83.484,27.923],[83.441,27.936]]]}},{"type":"Feature","properties":{"DIST_EN":"Panchthar"},"geometry":{"type":"Polygon","coordinates":[[[87.992,27.106],[87.991,27.131],[88.019,27.171],[88.012,27.216],[88.032,27.286],[88.067,27.336],[88.042,27.372],[88.051,27.413],[88.08,27.427],[88.068,27.438],[88.034,27.409],[88.004,27.329],[87.95,27.283],[87.777,27.273],[87.688,27.288],[87.686,27.262],[87.751,27.218],[87.74,27.198],[87.718,27.188],[87.7,27.147],[87.589,27.1],[87.537,27.045],[87.536,27.014],[87.493,26.985],[87.526,26.958],[87.522,26.885],[87.56,26.885],[87.58,26.861],[87.637,26.861],[87.688,26.881],[87.706,26.929],[87.677,26.952],[87.74,27.02],[87.778,27.013],[87.896,27.093],[87.992,27.106]]]}},{"type":"Feature","properties":{"DIST_EN":"Parbat"},"geometry":{"type":"Polygon","coordinates":[[[83.701,28.399],[83.688,28.399],[83.659,28.348],[83.597,28.392],[83.567,28.366],[83.568,28.341],[83.601,28.309],[83.61,28.259],[83.675,28.215],[83.64,28.175],[83.63,28.123],[83.561,28.064],[83.562,28.036],[83.611,28.013],[83.694,28.027],[83.694,28.052],[83.713,28.064],[83.704,28.09],[83.73,28.102],[83.705,28.119],[83.709,28.131],[83.731,28.148],[83.76,28.146],[83.756,28.19],[83.799,28.209],[83.809,28.22],[83.798,28.229],[83.823,28.251],[83.766,28.274],[83.775,28.309],[83.726,28.349],[83.701,28.399]]]}},{"type":"Feature","properties":{"DIST_EN":"Parsa"},"geometry":{"type":"Polygon","coordinates":[[[84.665,27.43],[84.562,27.463],[84.548,27.418],[84.533,27.414],[84.547,27.405],[84.535,27.402],[84.54,27.386],[84.495,27.377],[84.486,27.359],[84.622,27.336],[84.69,27.224],[84.675,27.097],[84.646,27.076],[84.643,27.047],[84.757,27.003],[84.773,27.018],[84.788,26.997],[84.81,27.011],[84.826,27.021],[84.855,27.008],[84.856,26.987],[84.881,26.989],[84.911,27.018],[84.917,27.034],[84.899,27.033],[84.9,27.046],[84.918,27.073],[84.936,27.071],[84.924,27.084],[84.955,27.127],[84.945,27.164],[84.973,27.264],[84.958,27.3],[84.97,27.356],[84.901,27.375],[84.834,27.418],[84.81,27.416],[84.791,27.438],[84.726,27.445],[84.719,27.431],[84.665,27.43]]]}},{"type":"Feature","properties":{"DIST_EN":"Pyuthan"},"geometry":{"type":"Polygon","coordinates":[[[82.955,28.36],[82.927,28.349],[82.883,28.271],[82.849,28.256],[82.852,28.236],[82.817,28.215],[82.826,28.2],[82.815,28.188],[82.758,28.18],[82.733,28.208],[82.696,28.212],[82.684,28.186],[82.625,28.179],[82.59,28.148],[82.607,28.12],[82.6,28.094],[82.625,28.07],[82.719,28.047],[82.696,28.014],[82.763,27.977],[82.752,27.944],[82.776,27.926],[82.774,27.894],[82.805,27.878],[82.825,27.906],[82.868,27.91],[82.916,27.904],[82.943,27.931],[83.014,27.923],[83.017,27.957],[83,27.978],[82.953,27.994],[82.974,28.006],[82.962,28.046],[83.002,28.114],[83.029,28.099],[83.051,28.106],[83.057,28.145],[83.03,28.175],[83.037,28.203],[83.022,28.235],[83.078,28.234],[83.098,28.274],[83.062,28.318],[82.955,28.36]]]}},{"type":"Feature","properties":{"DIST_EN":"Ramechhap"},"geometry":{"type":"Polygon","coordinates":[[[86.542,27.811],[86.487,27.809],[86.45,27.833],[86.42,27.814],[86.41,27.761],[86.428,27.733],[86.421,27.716],[86.339,27.683],[86.289,27.603],[86.192,27.572],[86.116,27.474],[86.094,27.5],[85.988,27.508],[85.998,27.546],[85.952,27.589],[85.881,27.615],[85.827,27.576],[85.819,27.518],[85.798,27.5],[85.809,27.455],[85.852,27.425],[85.918,27.409],[85.945,27.381],[85.966,27.385],[85.983,27.336],[86.055,27.288],[86.074,27.292],[86.091,27.269],[86.113,27.273],[86.151,27.242],[86.205,27.25],[86.241,27.289],[86.217,27.353],[86.264,27.456],[86.355,27.525],[86.38,27.571],[86.435,27.61],[86.493,27.614],[86.526,27.65],[86.573,27.755],[86.567,27.804],[86.542,27.811]]]}},{"type":"Feature","properties":{"DIST_EN":"Rasuwa"},"geometry":{"type":"Polygon","coordinates":[[[85.8,28.196],[85.749,28.238],[85.724,28.373],[85.695,28.386],[85.684,28.383],[85.686,28.347],[85.666,28.348],[85.661,28.303],[85.609,28.257],[85.601,28.304],[85.507,28.334],[85.415,28.327],[85.378,28.279],[85.34,28.304],[85.273,28.288],[85.203,28.341],[85.182,28.324],[85.16,28.332],[85.203,28.25],[85.188,28.228],[85.204,28.204],[85.196,28.168],[85.124,28.106],[85.129,28.086],[85.171,28.083],[85.133,28.038],[85.187,28.019],[85.184,27.973],[85.276,27.965],[85.404,28.039],[85.445,28.09],[85.489,28.106],[85.49,28.139],[85.533,28.168],[85.602,28.158],[85.627,28.129],[85.719,28.174],[85.779,28.174],[85.8,28.196]]]}},{"type":"Feature","properties":{"DIST_EN":"Rautahat"},"geometry":{"type":"Polygon","coordinates":[[[85.495,27.174],[85.472,27.162],[85.394,27.21],[85.269,27.228],[85.246,27.159],[85.197,27.108],[85.201,27.066],[85.183,27.05],[85.201,27.039],[85.177,27.038],[85.198,27.028],[85.164,26.981],[85.175,26.892],[85.166,26.879],[85.193,26.867],[85.179,26.798],[85.206,26.762],[85.322,26.745],[85.351,26.762],[85.322,26.804],[85.353,26.841],[85.344,26.861],[85.396,26.892],[85.386,26.919],[85.402,26.978],[85.386,27.009],[85.434,27.067],[85.434,27.089],[85.488,27.139],[85.504,27.164],[85.495,27.174]]]}},{"type":"Feature","properties":{"DIST_EN":"Rolpa"},"geometry":{"type":"Polygon","coordinates":[[[82.879,28.476],[82.753,28.505],[82.737,28.527],[82.703,28.509],[82.687,28.524],[82.658,28.493],[82.641,28.495],[82.545,28.526],[82.529,28.558],[82.492,28.553],[82.463,28.521],[82.418,28.529],[82.396,28.461],[82.374,28.448],[82.376,28.43],[82.35,28.422],[82.384,28.373],[82.364,28.32],[82.404,28.262],[82.437,28.247],[82.404,28.213],[82.397,28.169],[82.409,28.161],[82.485,28.131],[82.504,28.15],[82.557,28.136],[82.597,28.093],[82.607,28.12],[82.59,28.148],[82.625,28.179],[82.684,28.186],[82.696,28.212],[82.733,28.208],[82.758,28.18],[82.815,28.188],[82.826,28.2],[82.817,28.215],[82.85,28.232],[82.849,28.256],[82.883,28.271],[82.927,28.349],[82.957,28.365],[82.944,28.398],[82.916,28.403],[82.914,28.434],[82.879,28.476]]]}},{"type":"Feature","properties":{"DIST_EN":"Rukum East"},"geometry":{"type":"Polygon","coordinates":[[[82.696,28.865],[82.672,28.852],[82.643,28.867],[82.614,28.827],[82.62,28.809],[82.562,28.768],[82.566,28.744],[82.601,28.743],[82.615,28.71],[82.599,28.669],[82.555,28.644],[82.501,28.668],[82.486,28.641],[82.581,28.612],[82.575,28.58],[82.53,28.564],[82.545,28.526],[82.658,28.493],[82.687,28.524],[82.703,28.509],[82.737,28.527],[82.753,28.505],[82.879,28.476],[82.912,28.478],[82.877,28.515],[82.914,28.528],[82.916,28.565],[82.98,28.55],[82.986,28.571],[82.953,28.598],[82.977,28.629],[83.058,28.62],[83.116,28.632],[83.12,28.675],[83.139,28.675],[83.153,28.701],[83.145,28.747],[83.114,28.744],[83.079,28.786],[82.981,28.801],[82.947,28.829],[82.817,28.831],[82.766,28.809],[82.743,28.845],[82.696,28.865]]]}},{"type":"Feature","properties":{"DIST_EN":"Rukum West"},"geometry":{"type":"Polygon","coordinates":[[[82.696,28.865],[82.7,28.909],[82.667,28.963],[82.575,28.992],[82.542,28.981],[82.513,28.95],[82.497,28.879],[82.4,28.842],[82.358,28.792],[82.294,28.785],[82.28,28.694],[82.247,28.712],[82.209,28.676],[82.197,28.683],[82.185,28.623],[82.315,28.592],[82.375,28.567],[82.384,28.53],[82.463,28.521],[82.492,28.553],[82.575,28.58],[82.578,28.615],[82.508,28.628],[82.486,28.641],[82.49,28.66],[82.501,28.668],[82.555,28.644],[82.599,28.669],[82.615,28.71],[82.601,28.743],[82.566,28.744],[82.562,28.768],[82.62,28.809],[82.614,28.827],[82.643,28.867],[82.672,28.852],[82.696,28.865]]]}},{"type":"Feature","properties":{"DIST_EN":"Rupandehi"},"geometry":{"type":"Polygon","coordinates":[[[83.633,27.693],[83.514,27.729],[83.443,27.724],[83.389,27.749],[83.371,27.735],[83.329,27.767],[83.283,27.756],[83.256,27.767],[83.238,27.75],[83.212,27.759],[83.232,27.61],[83.204,27.56],[83.233,27.514],[83.225,27.472],[83.217,27.445],[83.231,27.431],[83.217,27.418],[83.272,27.384],[83.266,27.366],[83.292,27.335],[83.318,27.33],[83.359,27.343],[83.41,27.413],[83.384,27.436],[83.403,27.466],[83.389,27.48],[83.615,27.47],[83.587,27.532],[83.596,27.573],[83.581,27.575],[83.572,27.611],[83.63,27.665],[83.633,27.693]]]}},{"type":"Feature","properties":{"DIST_EN":"Salyan"},"geometry":{"type":"Polygon","coordinates":[[[82.185,28.623],[82.167,28.611],[82.138,28.627],[82.083,28.618],[82.057,28.644],[82.029,28.641],[82.025,28.613],[82.004,28.614],[82.012,28.596],[81.994,28.57],[82.028,28.518],[82.01,28.468],[81.961,28.447],[81.99,28.395],[81.97,28.352],[81.928,28.339],[81.794,28.392],[81.769,28.384],[81.752,28.344],[81.745,28.313],[81.787,28.295],[81.794,28.274],[81.844,28.272],[81.861,28.239],[81.922,28.227],[82.008,28.151],[82.042,28.23],[82.101,28.259],[82.144,28.237],[82.17,28.252],[82.244,28.238],[82.3,28.246],[82.312,28.223],[82.338,28.224],[82.367,28.19],[82.393,28.189],[82.397,28.169],[82.407,28.221],[82.437,28.247],[82.404,28.262],[82.364,28.32],[82.384,28.373],[82.35,28.422],[82.376,28.43],[82.374,28.448],[82.396,28.461],[82.417,28.531],[82.384,28.53],[82.375,28.567],[82.34,28.59],[82.273,28.593],[82.185,28.623]]]}},{"type":"Feature","properties":{"DIST_EN":"Sankhuwasabha"},"geometry":{"type":"Polygon","coordinates":[[[87.666,27.807],[87.665,27.837],[87.633,27.833],[87.612,27.811],[87.59,27.82],[87.586,27.853],[87.562,27.867],[87.536,27.843],[87.49,27.847],[87.45,27.822],[87.404,27.834],[87.432,27.842],[87.419,27.863],[87.355,27.828],[87.318,27.826],[87.304,27.844],[87.26,27.851],[87.226,27.82],[87.168,27.822],[87.116,27.84],[87.107,27.875],[87.039,27.95],[86.983,27.95],[86.967,27.903],[86.991,27.847],[86.977,27.826],[87.01,27.815],[86.983,27.791],[86.979,27.75],[87.008,27.718],[86.954,27.605],[86.967,27.542],[86.943,27.509],[86.963,27.484],[86.94,27.459],[86.993,27.438],[87.057,27.441],[87.073,27.46],[87.138,27.453],[87.125,27.402],[87.192,27.352],[87.182,27.316],[87.201,27.302],[87.202,27.247],[87.26,27.178],[87.357,27.191],[87.407,27.136],[87.42,27.176],[87.47,27.198],[87.48,27.25],[87.517,27.297],[87.444,27.406],[87.482,27.567],[87.513,27.599],[87.529,27.595],[87.545,27.638],[87.532,27.652],[87.561,27.699],[87.58,27.676],[87.605,27.674],[87.615,27.705],[87.639,27.71],[87.677,27.79],[87.666,27.807]]]}},{"type":"Feature","properties":{"DIST_EN":"Saptari"},"geometry":{"type":"Polygon","coordinates":[[[87.01,26.711],[86.991,26.698],[86.967,26.736],[86.933,26.741],[86.921,26.767],[86.885,26.712],[86.848,26.691],[86.824,26.714],[86.753,26.686],[86.737,26.712],[86.685,26.688],[86.665,26.705],[86.657,26.692],[86.611,26.689],[86.586,26.697],[86.574,26.74],[86.553,26.746],[86.578,26.784],[86.531,26.789],[86.529,26.745],[86.503,26.723],[86.505,26.676],[86.513,26.602],[86.486,26.55],[86.542,26.539],[86.57,26.497],[86.693,26.451],[86.731,26.422],[86.769,26.46],[86.833,26.439],[86.894,26.462],[86.893,26.488],[86.933,26.534],[86.992,26.572],[86.979,26.625],[87.013,26.671],[87.01,26.711]]]}},{"type":"Feature","properties":{"DIST_EN":"Sarlahi"},"geometry":{"type":"Polygon","coordinates":[[[85.816,27.161],[85.724,27.195],[85.63,27.137],[85.49,27.155],[85.386,27.009],[85.402,26.978],[85.386,26.919],[85.396,26.892],[85.344,26.861],[85.353,26.841],[85.322,26.804],[85.337,26.78],[85.351,26.762],[85.333,26.76],[85.335,26.742],[85.408,26.791],[85.452,26.781],[85.48,26.802],[85.496,26.797],[85.498,26.812],[85.566,26.841],[85.575,26.861],[85.585,26.847],[85.624,26.874],[85.68,26.843],[85.676,26.865],[85.71,26.904],[85.748,27.035],[85.798,27.095],[85.793,27.137],[85.816,27.161]]]}},{"type":"Feature","properties":{"DIST_EN":"Sindhuli"},"geometry":{"type":"Polygon","coordinates":[[[86.204,27.25],[86.151,27.242],[86.113,27.273],[86.091,27.269],[86.074,27.292],[86.055,27.288],[85.983,27.336],[85.966,27.385],[85.945,27.381],[85.918,27.409],[85.852,27.425],[85.822,27.451],[85.786,27.438],[85.774,27.398],[85.714,27.406],[85.696,27.373],[85.706,27.351],[85.689,27.337],[85.651,27.334],[85.635,27.354],[85.559,27.339],[85.487,27.376],[85.425,27.333],[85.433,27.288],[85.479,27.27],[85.488,27.221],[85.504,27.222],[85.51,27.199],[85.488,27.198],[85.481,27.181],[85.503,27.174],[85.496,27.146],[85.559,27.144],[85.63,27.137],[85.724,27.195],[85.809,27.162],[85.831,27.167],[85.863,27.127],[85.887,27.146],[85.938,27.121],[85.992,27.025],[86.089,27.019],[86.188,26.983],[86.26,26.919],[86.284,26.949],[86.365,26.98],[86.383,27.032],[86.346,27.066],[86.363,27.1],[86.306,27.109],[86.326,27.111],[86.343,27.147],[86.368,27.141],[86.39,27.18],[86.344,27.203],[86.341,27.229],[86.266,27.261],[86.23,27.237],[86.204,27.25]]]}},{"type":"Feature","properties":{"DIST_EN":"Sindhupalchok"},"geometry":{"type":"Polygon","coordinates":[[[86.065,27.9],[86.001,27.911],[85.948,27.942],[85.977,27.997],[85.901,28.054],[85.898,28.109],[85.87,28.124],[85.849,28.184],[85.816,28.203],[85.779,28.174],[85.719,28.174],[85.627,28.129],[85.602,28.158],[85.533,28.168],[85.49,28.139],[85.489,28.106],[85.442,28.083],[85.497,28.029],[85.479,27.959],[85.488,27.92],[85.451,27.851],[85.449,27.818],[85.468,27.784],[85.534,27.792],[85.566,27.764],[85.554,27.749],[85.604,27.749],[85.654,27.721],[85.68,27.7],[85.706,27.642],[85.735,27.677],[85.813,27.669],[85.817,27.644],[85.885,27.611],[85.918,27.664],[85.939,27.669],[85.936,27.709],[85.961,27.742],[86.03,27.742],[86.023,27.801],[86.003,27.83],[86.065,27.9]]]}},{"type":"Feature","properties":{"DIST_EN":"Siraha"},"geometry":{"type":"Polygon","coordinates":[[[86.531,26.789],[86.555,26.831],[86.52,26.832],[86.48,26.871],[86.48,26.889],[86.384,26.909],[86.366,26.873],[86.288,26.887],[86.247,26.864],[86.179,26.9],[86.155,26.935],[86.131,26.892],[86.155,26.845],[86.145,26.787],[86.157,26.755],[86.175,26.748],[86.2,26.685],[86.197,26.667],[86.151,26.638],[86.147,26.609],[86.192,26.615],[86.196,26.594],[86.217,26.589],[86.252,26.617],[86.345,26.617],[86.341,26.606],[86.486,26.55],[86.513,26.602],[86.503,26.723],[86.529,26.745],[86.531,26.789]]]}},{"type":"Feature","properties":{"DIST_EN":"Solukhumbu"},"geometry":{"type":"Polygon","coordinates":[[[86.983,27.95],[86.934,27.963],[86.925,27.988],[86.89,27.997],[86.867,28.025],[86.79,28.019],[86.753,28.038],[86.765,28.075],[86.738,28.104],[86.689,28.109],[86.635,28.071],[86.568,28.112],[86.565,28.069],[86.533,28.047],[86.512,27.968],[86.555,27.908],[86.54,27.815],[86.567,27.804],[86.573,27.755],[86.5,27.62],[86.435,27.61],[86.388,27.573],[86.356,27.526],[86.402,27.517],[86.44,27.486],[86.467,27.446],[86.46,27.434],[86.473,27.421],[86.503,27.425],[86.564,27.366],[86.571,27.341],[86.657,27.34],[86.679,27.354],[86.684,27.393],[86.752,27.395],[86.804,27.415],[86.822,27.44],[86.871,27.428],[86.933,27.443],[86.963,27.484],[86.943,27.509],[86.967,27.542],[86.954,27.605],[87.008,27.718],[86.979,27.75],[86.983,27.791],[87.01,27.815],[86.977,27.826],[86.991,27.847],[86.967,27.903],[86.983,27.95]]]}},{"type":"Feature","properties":{"DIST_EN":"Sunsari"},"geometry":{"type":"Polygon","coordinates":[[[87.348,26.85],[87.297,26.875],[87.256,26.866],[87.234,26.879],[87.216,26.863],[87.158,26.875],[87.105,26.755],[87.064,26.745],[87.039,26.755],[87.014,26.722],[87.013,26.671],[86.979,26.625],[86.992,26.572],[86.933,26.534],[86.904,26.488],[86.93,26.49],[86.933,26.517],[87.015,26.532],[87.045,26.587],[87.072,26.586],[87.092,26.45],[87.163,26.404],[87.211,26.413],[87.219,26.403],[87.245,26.414],[87.246,26.521],[87.291,26.577],[87.301,26.63],[87.286,26.663],[87.339,26.737],[87.323,26.78],[87.349,26.821],[87.348,26.85]]]}},{"type":"Feature","properties":{"DIST_EN":"Surkhet"},"geometry":{"type":"Polygon","coordinates":[[[81.104,28.966],[81.049,28.978],[80.981,28.939],[81.102,28.845],[81.143,28.873],[81.153,28.83],[81.174,28.835],[81.203,28.817],[81.206,28.862],[81.242,28.811],[81.226,28.795],[81.248,28.78],[81.285,28.673],[81.32,28.669],[81.316,28.637],[81.401,28.607],[81.446,28.554],[81.466,28.554],[81.721,28.382],[81.767,28.37],[81.779,28.391],[81.81,28.39],[81.94,28.342],[81.981,28.363],[81.977,28.386],[81.99,28.395],[81.961,28.447],[81.986,28.447],[82.025,28.499],[82.018,28.543],[81.994,28.57],[82.012,28.596],[82.004,28.614],[82.025,28.613],[82.027,28.639],[82.04,28.642],[81.886,28.643],[81.845,28.711],[81.82,28.724],[81.811,28.68],[81.776,28.633],[81.691,28.674],[81.639,28.677],[81.575,28.713],[81.547,28.749],[81.52,28.75],[81.535,28.761],[81.516,28.781],[81.522,28.803],[81.463,28.853],[81.465,28.894],[81.414,28.914],[81.348,28.89],[81.302,28.926],[81.266,28.903],[81.246,28.915],[81.204,28.908],[81.104,28.966]]]}},{"type":"Feature","properties":{"DIST_EN":"Syangja"},"geometry":{"type":"Polygon","coordinates":[[[83.809,28.22],[83.756,28.19],[83.76,28.146],[83.731,28.148],[83.709,28.131],[83.705,28.119],[83.73,28.102],[83.704,28.09],[83.713,28.064],[83.694,28.052],[83.694,28.027],[83.605,28.012],[83.578,27.974],[83.522,27.964],[83.483,27.982],[83.44,27.933],[83.484,27.923],[83.509,27.941],[83.524,27.924],[83.531,27.939],[83.549,27.928],[83.571,27.943],[83.575,27.93],[83.626,27.926],[83.634,27.899],[83.676,27.928],[83.745,27.908],[83.775,27.903],[83.807,27.873],[83.846,27.869],[83.845,27.882],[83.86,27.874],[83.878,27.888],[83.925,27.868],[83.942,27.876],[83.941,27.894],[83.978,27.91],[83.967,27.958],[83.979,27.998],[84.032,28.02],[83.995,28.047],[83.964,28.039],[83.941,28.061],[83.995,28.102],[84.002,28.132],[83.93,28.144],[83.924,28.169],[83.891,28.195],[83.856,28.194],[83.809,28.22]]]}},{"type":"Feature","properties":{"DIST_EN":"Tanahu"},"geometry":{"type":"Polygon","coordinates":[[[84.478,28.058],[84.444,28.104],[84.396,28.13],[84.33,28.124],[84.233,28.079],[84.219,28.1],[84.103,28.11],[84.07,28.078],[83.998,28.114],[83.941,28.061],[83.964,28.039],[83.995,28.047],[84.032,28.02],[83.979,27.998],[83.967,27.958],[83.978,27.91],[83.937,27.885],[84,27.855],[84.023,27.861],[84.053,27.849],[84.081,27.87],[84.156,27.84],[84.202,27.853],[84.21,27.839],[84.291,27.838],[84.326,27.748],[84.361,27.754],[84.38,27.779],[84.418,27.759],[84.422,27.741],[84.451,27.759],[84.471,27.752],[84.431,27.787],[84.433,27.814],[84.517,27.816],[84.522,27.832],[84.555,27.836],[84.559,27.858],[84.541,27.876],[84.539,27.918],[84.502,27.916],[84.421,27.958],[84.478,28.058]]]}},{"type":"Feature","properties":{"DIST_EN":"Taplejung"},"geometry":{"type":"Polygon","coordinates":[[[88.068,27.438],[88.044,27.496],[88.062,27.512],[88.082,27.585],[88.145,27.666],[88.156,27.737],[88.179,27.747],[88.197,27.791],[88.173,27.821],[88.2,27.836],[88.196,27.854],[88.135,27.882],[88.096,27.867],[88.084,27.896],[88.064,27.886],[88.03,27.906],[87.985,27.886],[87.932,27.918],[87.866,27.911],[87.857,27.948],[87.832,27.953],[87.825,27.92],[87.785,27.899],[87.779,27.866],[87.733,27.809],[87.666,27.807],[87.677,27.79],[87.639,27.71],[87.615,27.705],[87.605,27.674],[87.58,27.676],[87.561,27.699],[87.532,27.652],[87.545,27.638],[87.529,27.595],[87.513,27.599],[87.482,27.567],[87.444,27.406],[87.517,27.297],[87.651,27.268],[87.68,27.271],[87.696,27.291],[87.777,27.273],[87.95,27.283],[88.004,27.329],[88.034,27.409],[88.068,27.438]]]}},{"type":"Feature","properties":{"DIST_EN":"Terhathum"},"geometry":{"type":"Polygon","coordinates":[[[87.68,27.271],[87.517,27.297],[87.48,27.25],[87.47,27.198],[87.412,27.168],[87.392,27.103],[87.43,27.038],[87.439,26.972],[87.483,26.981],[87.536,27.014],[87.537,27.045],[87.589,27.1],[87.7,27.147],[87.718,27.188],[87.745,27.199],[87.746,27.224],[87.68,27.271]]]}},{"type":"Feature","properties":{"DIST_EN":"Udayapur"},"geometry":{"type":"Polygon","coordinates":[[[86.434,27.149],[86.39,27.18],[86.368,27.141],[86.343,27.147],[86.326,27.111],[86.306,27.109],[86.363,27.1],[86.346,27.066],[86.383,27.032],[86.353,26.965],[86.284,26.949],[86.221,26.889],[86.158,26.93],[86.157,26.917],[86.247,26.864],[86.288,26.887],[86.366,26.873],[86.384,26.909],[86.48,26.889],[86.48,26.871],[86.52,26.832],[86.555,26.831],[86.53,26.792],[86.578,26.784],[86.553,26.746],[86.574,26.74],[86.586,26.697],[86.649,26.69],[86.669,26.702],[86.685,26.688],[86.737,26.712],[86.753,26.686],[86.824,26.714],[86.848,26.691],[86.885,26.712],[86.921,26.767],[86.933,26.741],[86.967,26.736],[86.991,26.698],[87.039,26.755],[87.064,26.745],[87.105,26.755],[87.168,26.901],[87.142,26.928],[87.002,26.886],[86.978,26.907],[86.931,26.908],[86.805,26.873],[86.772,26.885],[86.747,27.024],[86.669,27.12],[86.581,27.153],[86.465,27.102],[86.446,27.133],[86.427,27.133],[86.434,27.149]]]}}]}